0 THOR BURNER 2 R/B
1 02940U 67080B   13282.60001551  .00000100  00000-0  73315-4 0  1480
2 02940 099.0054 110.9121 0038737 136.8616 267.5460 14.16032136379419
0 THOR BURNER 2 R/B
1 02940U 67080B   13284.10378749  .00000123  00000-0  84956-4 0  1492
2 02940 099.0051 112.4324 0038778 132.6891 013.2574 14.16032438379622
0 THOR BURNER 2 R/B
1 02940U 67080B   13286.48791866  .00000035  00000-0  40545-4 0  1515
2 02940 099.0048 114.8429 0038819 126.1120 286.6965 14.16033763379968
0 THOR BURNER 2 R/B
1 02940U 67080B   13287.61634957  .00000072  00000-0  58914-4 0  1529
2 02940 099.0047 115.9837 0038835 122.9724 279.0604 14.16034243380124
0 THOR BURNER 2 R/B
1 02940U 67080B   13289.12029749  .00000118  00000-0  81985-4 0  1530
2 02940 099.0046 117.5041 0038871 118.8029 025.6765 14.16034454380330
0 THOR BURNER 2 R/B
1 02940U 67080B   13290.37387448  .00000125  00000-0  85793-4 0  1542
2 02940 099.0047 118.7715 0038882 115.3386 295.9766 14.16034523380512
0 THOR BURNER 2 R/B
1 02940U 67080B   13291.50482513  .00000090  00000-0  67984-4 0  1551
2 02940 099.0047 119.9148 0038880 112.2226 301.1586 14.16035098380677
0 THOR BURNER 2 R/B
1 02940U 67080B   13292.63481101  .00000074  00000-0  59869-4 0  1564
2 02940 099.0048 121.0572 0038878 109.0954 301.4373 14.16035645380835
0 THOR BURNER 2 R/B
1 02940U 67080B   13294.13572436  .00000073  00000-0  59655-4 0  1576
2 02940 099.0048 122.5744 0038889 104.9405 032.5822 14.16036171381049
0 THOR BURNER 2 R/B
1 02940U 67080B   13295.52492928  .00000130  00000-0  88288-4 0  1586
2 02940 099.0047 123.9789 0038898 101.0931 274.2833 14.16036121381248
